[{"OBJECT_NAME":"STARLINK-34637","OBJECT_ID":"2025-147X","EPOCH":"2026-01-11T13:28:18.810048","MEAN_MOTION":15.30200616,"ECCENTRICITY":0.00010161,"INCLINATION":53.16,"RA_OF_ASC_NODE":148.2099,"ARG_OF_PERICENTER":72.0644,"MEAN_ANOMALY":288.0467,"EPHEMERIS_TYPE":0,"CLASSIFICATION_TYPE":"U","NORAD_CAT_ID":64776,"ELEMENT_SET_NO":999,"REV_AT_EPOCH":2993,"BSTAR":0.0010531378,"MEAN_MOTION_DOT":0.00030962,"MEAN_MOTION_DDOT":0},{"OBJECT_NAME":"STARLINK-34547","OBJECT_ID":"2025-147Y","EPOCH":"2026-01-11T13:13:07.119840","MEAN_MOTION":15.30225439,"ECCENTRICITY":0.00014095,"INCLINATION":53.1591,"RA_OF_ASC_NODE":148.1451,"ARG_OF_PERICENTER":79.9755,"MEAN_ANOMALY":280.1405,"EPHEMERIS_TYPE":0,"CLASSIFICATION_TYPE":"U","NORAD_CAT_ID":64777,"ELEMENT_SET_NO":999,"REV_AT_EPOCH":2994,"BSTAR":0.00094922873,"MEAN_MOTION_DOT":0.00027882,"MEAN_MOTION_DDOT":0},{"OBJECT_NAME":"STARLINK-34537","OBJECT_ID":"2025-147Z","EPOCH":"2026-01-11T14:10:45.493248","MEAN_MOTION":15.38705121,"ECCENTRICITY":0.00010398,"INCLINATION":53.1573,"RA_OF_ASC_NODE":125.3618,"ARG_OF_PERICENTER":77.9549,"MEAN_ANOMALY":282.1572,"EPHEMERIS_TYPE":0,"CLASSIFICATION_TYPE":"U","NORAD_CAT_ID":64778,"ELEMENT_SET_NO":999,"REV_AT_EPOCH":3035,"BSTAR":-0.0053989242,"MEAN_MOTION_DOT":-0.00204431,"MEAN_MOTION_DDOT":0},{"OBJECT_NAME":"STARLINK-34585","OBJECT_ID":"2025-147AA","EPOCH":"2026-01-11T12:54:52.853472","MEAN_MOTION":15.30215349,"ECCENTRICITY":4.194e-5,"INCLINATION":53.1585,"RA_OF_ASC_NODE":148.0636,"ARG_OF_PERICENTER":21.8995,"MEAN_ANOMALY":338.2023,"EPHEMERIS_TYPE":0,"CLASSIFICATION_TYPE":"U","NORAD_CAT_ID":64779,"ELEMENT_SET_NO":999,"REV_AT_EPOCH":2995,"BSTAR":0.00076825298,"MEAN_MOTION_DOT":0.00022474,"MEAN_MOTION_DDOT":0},{"OBJECT_NAME":"STARLINK-34491","OBJECT_ID":"2025-147AB","EPOCH":"2026-01-11T15:53:52.245600","MEAN_MOTION":15.30214253,"ECCENTRICITY":0.00010089,"INCLINATION":53.157,"RA_OF_ASC_NODE":147.416,"ARG_OF_PERICENTER":76.332,"MEAN_ANOMALY":283.7793,"EPHEMERIS_TYPE":0,"CLASSIFICATION_TYPE":"U","NORAD_CAT_ID":64780,"ELEMENT_SET_NO":999,"REV_AT_EPOCH":3002,"BSTAR":0.00088435787,"MEAN_MOTION_DOT":0.00025936,"MEAN_MOTION_DDOT":0},{"OBJECT_NAME":"STARLINK-34582","OBJECT_ID":"2025-147AC","EPOCH":"2026-01-11T15:55:22.490400","MEAN_MOTION":15.30182128,"ECCENTRICITY":0.00012369,"INCLINATION":53.1556,"RA_OF_ASC_NODE":147.4199,"ARG_OF_PERICENTER":60.4767,"MEAN_ANOMALY":299.6357,"EPHEMERIS_TYPE":0,"CLASSIFICATION_TYPE":"U","NORAD_CAT_ID":64781,"ELEMENT_SET_NO":999,"REV_AT_EPOCH":2995,"BSTAR":0.0005079732,"MEAN_MOTION_DOT":0.00014707,"MEAN_MOTION_DDOT":0},{"OBJECT_NAME":"STARLINK-34482","OBJECT_ID":"2025-147AD","EPOCH":"2026-01-11T16:04:30.449568","MEAN_MOTION":15.30207519,"ECCENTRICITY":0.00010153,"INCLINATION":53.1574,"RA_OF_ASC_NODE":147.4636,"ARG_OF_PERICENTER":78.4593,"MEAN_ANOMALY":281.6521,"EPHEMERIS_TYPE":0,"CLASSIFICATION_TYPE":"U","NORAD_CAT_ID":64782,"ELEMENT_SET_NO":999,"REV_AT_EPOCH":3006,"BSTAR":0.00055511754,"MEAN_MOTION_DOT":0.00016121,"MEAN_MOTION_DDOT":0},{"OBJECT_NAME":"STARLINK-34629","OBJECT_ID":"2025-150A","EPOCH":"2026-01-11T04:08:04.635168","MEAN_MOTION":14.99146999,"ECCENTRICITY":0.00024397,"INCLINATION":70.0009,"RA_OF_ASC_NODE":279.3809,"ARG_OF_PERICENTER":273.0144,"MEAN_ANOMALY":87.0737,"EPHEMERIS_TYPE":0,"CLASSIFICATION_TYPE":"U","NORAD_CAT_ID":64790,"ELEMENT_SET_NO":999,"REV_AT_EPOCH":2790,"BSTAR":0.00031280175,"MEAN_MOTION_DOT":3.72e-5,"MEAN_MOTION_DDOT":0},{"OBJECT_NAME":"STARLINK-34697","OBJECT_ID":"2025-150B","EPOCH":"2026-01-11T04:09:57.246336","MEAN_MOTION":14.97975592,"ECCENTRICITY":0.00012029,"INCLINATION":70.0007,"RA_OF_ASC_NODE":279.3795,"ARG_OF_PERICENTER":249.4808,"MEAN_ANOMALY":110.6222,"EPHEMERIS_TYPE":0,"CLASSIFICATION_TYPE":"U","NORAD_CAT_ID":64791,"ELEMENT_SET_NO":999,"REV_AT_EPOCH":2790,"BSTAR":-0.006217465,"MEAN_MOTION_DOT":-0.00072835,"MEAN_MOTION_DDOT":0},{"OBJECT_NAME":"STARLINK-34632","OBJECT_ID":"2025-150C","EPOCH":"2026-01-11T04:28:41.523744","MEAN_MOTION":14.97538688,"ECCENTRICITY":0.00028094,"INCLINATION":70.0009,"RA_OF_ASC_NODE":279.3062,"ARG_OF_PERICENTER":272.9619,"MEAN_ANOMALY":87.1218,"EPHEMERIS_TYPE":0,"CLASSIFICATION_TYPE":"U","NORAD_CAT_ID":64792,"ELEMENT_SET_NO":999,"REV_AT_EPOCH":2790,"BSTAR":0.00094711422,"MEAN_MOTION_DOT":0.00010997,"MEAN_MOTION_DDOT":0},{"OBJECT_NAME":"STARLINK-34693","OBJECT_ID":"2025-150D","EPOCH":"2026-01-11T11:40:32.208960","MEAN_MOTION":14.98330657,"ECCENTRICITY":0.00018827,"INCLINATION":70.0002,"RA_OF_ASC_NODE":278.863,"ARG_OF_PERICENTER":267.6587,"MEAN_ANOMALY":92.4356,"EPHEMERIS_TYPE":0,"CLASSIFICATION_TYPE":"U","NORAD_CAT_ID":64793,"ELEMENT_SET_NO":999,"REV_AT_EPOCH":2794,"BSTAR":0.00093429088,"MEAN_MOTION_DOT":0.00011072,"MEAN_MOTION_DDOT":0},{"OBJECT_NAME":"STARLINK-34666","OBJECT_ID":"2025-150E","EPOCH":"2026-01-11T11:40:16.929984","MEAN_MOTION":14.98340235,"ECCENTRICITY":0.00022543,"INCLINATION":70.0005,"RA_OF_ASC_NODE":278.8695,"ARG_OF_PERICENTER":279.0505,"MEAN_ANOMALY":81.0399,"EPHEMERIS_TYPE":0,"CLASSIFICATION_TYPE":"U","NORAD_CAT_ID":64794,"ELEMENT_SET_NO":999,"REV_AT_EPOCH":2794,"BSTAR":0.00044007494,"MEAN_MOTION_DOT":5.163e-5,"MEAN_MOTION_DDOT":0},{"OBJECT_NAME":"STARLINK-34567","OBJECT_ID":"2025-150F","EPOCH":"2026-01-11T16:00:00.999936","MEAN_MOTION":14.9831877,"ECCENTRICITY":0.00027708,"INCLINATION":70.0007,"RA_OF_ASC_NODE":278.0596,"ARG_OF_PERICENTER":265.9273,"MEAN_ANOMALY":301.9336,"EPHEMERIS_TYPE":0,"CLASSIFICATION_TYPE":"U","NORAD_CAT_ID":64795,"ELEMENT_SET_NO":999,"REV_AT_EPOCH":581,"BSTAR":0.0040999832,"MEAN_MOTION_DOT":0.00049157,"MEAN_MOTION_DDOT":0},{"OBJECT_NAME":"STARLINK-34646","OBJECT_ID":"2025-150G","EPOCH":"2026-01-11T03:15:48.178656","MEAN_MOTION":14.98333891,"ECCENTRICITY":0.00019967,"INCLINATION":70.0007,"RA_OF_ASC_NODE":279.646,"ARG_OF_PERICENTER":273.7315,"MEAN_ANOMALY":86.3616,"EPHEMERIS_TYPE":0,"CLASSIFICATION_TYPE":"U","NORAD_CAT_ID":64796,"ELEMENT_SET_NO":999,"REV_AT_EPOCH":2878,"BSTAR":0.0002080316,"MEAN_MOTION_DOT":2.39e-5,"MEAN_MOTION_DDOT":0},{"OBJECT_NAME":"STARLINK-34641","OBJECT_ID":"2025-150H","EPOCH":"2026-01-11T15:34:36.344928","MEAN_MOTION":14.98533959,"ECCENTRICITY":0.00034593,"INCLINATION":70.0006,"RA_OF_ASC_NODE":278.229,"ARG_OF_PERICENTER":263.765,"MEAN_ANOMALY":96.3115,"EPHEMERIS_TYPE":0,"CLASSIFICATION_TYPE":"U","NORAD_CAT_ID":64797,"ELEMENT_SET_NO":999,"REV_AT_EPOCH":2880,"BSTAR":-0.014623785,"MEAN_MOTION_DOT":-0.00171299,"MEAN_MOTION_DDOT":0},{"OBJECT_NAME":"STARLINK-34649","OBJECT_ID":"2025-150J","EPOCH":"2026-01-11T11:16:27.676128","MEAN_MOTION":14.99150443,"ECCENTRICITY":0.00027278,"INCLINATION":70.0006,"RA_OF_ASC_NODE":278.8118,"ARG_OF_PERICENTER":271.8004,"MEAN_ANOMALY":88.2843,"EPHEMERIS_TYPE":0,"CLASSIFICATION_TYPE":"U","NORAD_CAT_ID":64798,"ELEMENT_SET_NO":999,"REV_AT_EPOCH":2883,"BSTAR":0.00065708332,"MEAN_MOTION_DOT":7.924e-5,"MEAN_MOTION_DDOT":0}]
