STARLINK-34637          
1 64776U 25147X   26011.56132882  .00030962  00000+0  10531-2 0  9995
2 64776  53.1600 148.2099 0001016  72.0644 288.0467 15.30200616 29933
STARLINK-34547          
1 64777U 25147Y   26011.55077685  .00027882  00000+0  94923-3 0  9999
2 64777  53.1591 148.1451 0001409  79.9755 280.1405 15.30225439 29945
STARLINK-34537          
1 64778U 25147Z   26011.59080432 -.00204431  00000+0 -53989-2 0  9993
2 64778  53.1573 125.3618 0001039  77.9549 282.1572 15.38705121 30359
STARLINK-34585          
1 64779U 25147AA  26011.53811173  .00022474  00000+0  76825-3 0  9990
2 64779  53.1585 148.0636 0000419  21.8995 338.2023 15.30215349 29957
STARLINK-34491          
1 64780U 25147AB  26011.66241025  .00025936  00000+0  88436-3 0  9996
2 64780  53.1570 147.4160 0001008  76.3320 283.7793 15.30214253 30021
STARLINK-34582          
1 64781U 25147AC  26011.66345475  .00014707  00000+0  50797-3 0  9994
2 64781  53.1556 147.4199 0001236  60.4767 299.6357 15.30182128 29957
STARLINK-34482          
1 64782U 25147AD  26011.66979687  .00016121  00000+0  55512-3 0  9995
2 64782  53.1574 147.4636 0001015  78.4593 281.6521 15.30207519 30065
STARLINK-34629          
1 64790U 25150A   26011.17227587  .00003720  00000+0  31280-3 0  9996
2 64790  70.0009 279.3809 0002439 273.0144  87.0737 14.99146999 27902
STARLINK-34697          
1 64791U 25150B   26011.17357924 -.00072835  00000+0 -62175-2 0  9997
2 64791  70.0007 279.3795 0001202 249.4808 110.6222 14.97975592 27905
STARLINK-34632          
1 64792U 25150C   26011.18659171  .00010997  00000+0  94711-3 0  9999
2 64792  70.0009 279.3062 0002809 272.9619  87.1218 14.97538688 27904
STARLINK-34693          
1 64793U 25150D   26011.48648390  .00011072  00000+0  93429-3 0  9994
2 64793  70.0002 278.8630 0001882 267.6587  92.4356 14.98330657 27941
STARLINK-34666          
1 64794U 25150E   26011.48630706  .00005163  00000+0  44007-3 0  9999
2 64794  70.0005 278.8695 0002254 279.0505  81.0399 14.98340235 27941
STARLINK-34567          
1 64795U 25150F   26011.66667824  .00049157  00000+0  41000-2 0  9991
2 64795  70.0007 278.0596 0002770 265.9273 301.9336 14.98318770  5811
STARLINK-34646          
1 64796U 25150G   26011.13597429  .00002390  00000+0  20803-3 0  9994
2 64796  70.0007 279.6460 0001996 273.7315  86.3616 14.98333891 28789
STARLINK-34641          
1 64797U 25150H   26011.64903177 -.00171299  00000+0 -14624-1 0  9991
2 64797  70.0006 278.2290 0003459 263.7650  96.3115 14.98533959 28807
STARLINK-34649          
1 64798U 25150J   26011.46976477  .00007924  00000+0  65708-3 0  9997
2 64798  70.0006 278.8118 0002727 271.8004  88.2843 14.99150443 28838
